{
    "links": {
        "self": "http://www.neowsapp.com/rest/v1/neo/54087666?api_key=iIulBulltgU6a56xZRHN4H3l9WmuAYTsLGpBGhQ2"
    },
    "id": "54087666",
    "neo_reference_id": "54087666",
    "name": "(2020 VE2)",
    "designation": "2020 VE2",
    "nasa_jpl_url": "http://ssd.jpl.nasa.gov/sbdb.cgi?sstr=54087666",
    "absolute_magnitude_h": 25.417,
    "estimated_diameter": {
        "kilometers": {
            "estimated_diameter_min": 0.0219358757,
            "estimated_diameter_max": 0.0490501092
        },
        "meters": {
            "estimated_diameter_min": 21.9358757046,
            "estimated_diameter_max": 49.0501092215
        },
        "miles": {
            "estimated_diameter_min": 0.013630317,
            "estimated_diameter_max": 0.0304783154
        },
        "feet": {
            "estimated_diameter_min": 71.9680984467,
            "estimated_diameter_max": 160.9255603382
        }
    },
    "is_potentially_hazardous_asteroid": false,
    "close_approach_data": [
        {
            "close_approach_date": "2015-09-28",
            "close_approach_date_full": "2015-Sep-28 08:17",
            "epoch_date_close_approach": 1443428220000,
            "relative_velocity": {
                "kilometers_per_second": "5.45223598",
                "kilometers_per_hour": "19628.0495279947",
                "miles_per_hour": "12196.1066636587"
            },
            "miss_distance": {
                "astronomical": "0.0700280352",
                "lunar": "27.2409056928",
                "kilometers": "10476044.906205024",
                "miles": "6509512.4546123712"
            },
            "orbiting_body": "Mars"
        },
        {
            "close_approach_date": "2020-10-22",
            "close_approach_date_full": "2020-Oct-22 18:18",
            "epoch_date_close_approach": 1603390680000,
            "relative_velocity": {
                "kilometers_per_second": "5.7854532438",
                "kilometers_per_hour": "20827.6316775485",
                "miles_per_hour": "12941.4803609745"
            },
            "miss_distance": {
                "astronomical": "0.0331379553",
                "lunar": "12.8906646117",
                "kilometers": "4957367.529035211",
                "miles": "3080365.3441034718"
            },
            "orbiting_body": "Earth"
        },
        {
            "close_approach_date": "2025-11-19",
            "close_approach_date_full": "2025-Nov-19 09:58",
            "epoch_date_close_approach": 1763546280000,
            "relative_velocity": {
                "kilometers_per_second": "5.332912581",
                "kilometers_per_hour": "19198.4852914622",
                "miles_per_hour": "11929.1921523532"
            },
            "miss_distance": {
                "astronomical": "0.070517674",
                "lunar": "27.431375186",
                "kilometers": "10549293.82775438",
                "miles": "6555027.223915244"
            },
            "orbiting_body": "Mars"
        },
        {
            "close_approach_date": "2095-07-23",
            "close_approach_date_full": "2095-Jul-23 12:02",
            "epoch_date_close_approach": 3962260920000,
            "relative_velocity": {
                "kilometers_per_second": "19.010809229",
                "kilometers_per_hour": "68438.9132244252",
                "miles_per_hour": "42525.2791643658"
            },
            "miss_distance": {
                "astronomical": "0.4465431877",
                "lunar": "173.7053000153",
                "kilometers": "66801909.742930199",
                "miles": "41508781.9264627862"
            },
            "orbiting_body": "Earth"
        }
    ],
    "orbital_data": {
        "orbit_id": "6",
        "orbit_determination_date": "2020-12-06 05:25:10",
        "first_observation_date": "2020-11-10",
        "last_observation_date": "2020-12-06",
        "data_arc_in_days": 26,
        "observations_used": 42,
        "orbit_uncertainty": "7",
        "minimum_orbit_intersection": ".0333465",
        "jupiter_tisserand_invariant": "4.488",
        "epoch_osculation": "2459000.5",
        "eccentricity": ".3408262793551124",
        "semi_major_axis": "1.494604581942897",
        "inclination": "2.623343810322235",
        "ascending_node_longitude": "73.59287735768578",
        "orbital_period": "667.4025948461477",
        "perihelion_distance": ".9852040631721963",
        "perihelion_argument": "293.51506912",
        "aphelion_distance": "2.004005100713598",
        "perihelion_time": "2459125.865662181933",
        "mean_anomaly": "292.3771907181452",
        "mean_motion": ".5394045554812213",
        "equinox": "J2000",
        "orbit_class": {
            "orbit_class_type": "APO",
            "orbit_class_description": "Near-Earth asteroid orbits which cross the Earth’s orbit similar to that of 1862 Apollo",
            "orbit_class_range": "a (semi-major axis) > 1.0 AU; q (perihelion) < 1.017 AU"
        }
    },
    "is_sentry_object": false
}